DUBAISAT-1              
1 35682U 09041B   26175.95754576  .00000779  00000+0  12292-3 0  9998
2 35682  98.0059 309.1304 0011359  51.3880 308.8344 14.75134291906249
OCEANSAT-2              
1 35931U 09051A   26176.20596527 -.00000214  00000+0 -12071-3 0  9996
2 35931  98.2321 162.2573 0015875 211.9146 148.1060 13.99662047880456
WORLDVIEW-2 (WV-2)      
1 35946U 09055A   26176.16619016  .00000088  00000+0  43736-4 0  9990
2 35946  98.4734 249.5057 0004213 182.6248 177.4917 14.37901503876793
SMOS                    
1 36036U 09059A   26176.11201821  .00000252  00000+0  94178-4 0  9990
2 36036  98.4427   3.3308 0001315  88.3115 271.8224 14.39776570874595
YAOGAN-7                
1 36110U 09069A   26176.14499894  .00000468  00000+0  71857-4 0  9994
2 36110  98.0065  61.9626 0025032  16.8965 343.3073 14.78017199890803
TANDEM-X                
1 36605U 10030A   26174.44920952  .00000224  00000+0  13842-4 0  9998
2 36605  97.4453 182.0670 0001803  99.4957 260.6481 15.19147870887590
CARTOSAT-2B             
1 36795U 10035A   26176.18936964  .00000764  00000+0  11125-3 0  9996
2 36795  97.9953 226.6884 0011891 158.1108 202.0613 14.78670987861033
YAOGAN-10               
1 36834U 10038A   26176.23311277  .00001601  00000+0  19230-3 0  9999
2 36834  97.8978 199.5733 0001708  87.1356 335.2846 14.85370082858401
COSMO-SKYMED 4          
1 37216U 10060A   26176.13994926  .00000726  00000+0  97707-4 0  9999
2 37216  97.8893 359.6244 0001439  86.2404 273.8974 14.82159815845741
RESOURCESAT-2           
1 37387U 11015A   26176.18303935  .00000074  00000+0  54065-4 0  9994
2 37387  98.7641 243.5696 0010448 230.1309 129.8950 14.21601556787316
HAIYANG-2A              
1 37781U 11043A   26176.19229516  .00000015  00000+0  62191-4 0  9990
2 37781  99.3397 178.6900 0005190  75.7177 284.4548 13.74169709747750
RASAT                   
1 37791U 11044D   26176.21801855  .00000144  00000+0  33381-4 0  9999
2 37791  98.0574 267.4924 0020804 163.2405 250.4204 14.68171728794362
SRMSAT                  
1 37841U 11058D   26176.22718632  .00000368  00000+0  55867-4 0  9992
2 37841  19.9735  10.8048 0011711 292.6715 223.4173 14.11577108758954
PLEIADES 1A             
1 38012U 11076F   26176.22118433  .00000161  00000+0  44567-4 0  9992
2 38012  98.1974 251.2163 0001738  91.1729 333.2434 14.58534906773163
ZIYUAN 1-02C (ZY 1-02C) 
1 38038U 11079A   26176.21939534  .00000160  00000+0  66865-4 0  9999
2 38038  98.4070 243.3602 0005175 287.9060 154.9184 14.38219797760367
ARIRANG-3 (KOMPSAT-3)   
1 38338U 12025B   26176.17593439  .00000388  00000+0  86282-4 0  9996
2 38338  98.1174 133.4981 0006821  89.4983 270.7000 14.62212453752510
EXACTVIEW-1 (ADS-1B)    
1 38709U 12039C   26175.19215887  .00000088  00000+0  57390-4 0  9997
2 38709  98.9784 292.7408 0011499 147.1161 213.0735 14.24986367723701
SPOT 6                  
1 38755U 12047A   26176.15559531 -.00000100  00000+0 -11766-4 0  9995
2 38755  98.2117 243.3717 0001361  74.5365 285.5984 14.58525965734214
PLEIADES 1B             
1 39019U 12068A   26176.17449707  .00000173  00000+0  46947-4 0  9994
2 39019  98.1946 251.1163 0001689  87.5129 272.6264 14.58564446722014
GOKTURK 2               
1 39030U 12073A   26176.15052556  .00000232  00000+0  40901-4 0  9993
2 39030  97.6823  13.1827 0001309  55.3986 304.7348 14.75548822725686
LANDSAT 8               
1 39084U 13008A   26176.19649015  .00000288  00000+0  73931-4 0  9997
2 39084  98.2299 246.2366 0001359  93.3105 266.8249 14.57099375699060
SARAL                   
1 39086U 13009A   26176.14126762  .00000095  00000+0  50979-4 0  9997
2 39086  98.5558   2.6077 0000653 243.7776 116.3341 14.32857754696747
GAOFEN-1                
1 39150U 13018A   26176.19505297  .00000314  00000+0  52212-4 0  9994
2 39150  97.9093 248.1005 0015803 238.3581 121.6088 14.76543786709423
VNREDSAT 1              
1 39160U 13021B   26176.14923156  .00000436  00000+0  90107-4 0  9992
2 39160  97.9080 229.2603 0001722  85.7818 274.3582 14.64863757701456
ARIRANG-5 (KOMPSAT-5)   
1 39227U 13042A   26176.14719375  .00000759  00000+0  58565-4 0  9995
2 39227  97.6194   2.7354 0005147 103.4098 256.7702 15.04504780705054
SKYSAT-A                
1 39418U 13066C   26176.12752602  .00002893  00000+0  16675-3 0  9997
2 39418  97.3814 225.2717 0019688 287.9556  71.9529 15.13014167689688
DUBAISAT-2              
1 39419U 13066D   26176.22051832  .00002723  00000+0  17014-3 0  9996
2 39419  97.4567 166.1539 0011565  16.3069 343.8530 15.10234923687603
GPM-CORE                
1 39574U 14009C   26176.17302214  .00012603  00000+0  27260-3 0  9995
2 39574  64.9719 281.3783 0011502 254.8382 105.1487 15.44728447699049
SENTINEL-1A             
1 39634U 14016A   26176.18463071 -.00000391  00000+0 -73258-4 0  9992
2 39634  98.1783 183.6006 0001390  82.5532 277.5825 14.59199317651181
KAZEOSAT 1              
1 39731U 14024A   26176.20907168 -.00000023  00000+0  58728-5 0  9999
2 39731  98.3204 248.4570 0001241  76.4417 283.6911 14.42082248639719
ALOS-2                  
1 39766U 14029A   26175.24061786  .00001307  00000+0  18191-3 0  9995
2 39766  97.9218 272.3032 0001637  93.0107 267.1292 14.79474948652622
