OBJECT_NAME,OBJECT_ID,EPOCH,MEAN_MOTION,ECCENTRICITY,INCLINATION,RA_OF_ASC_NODE,ARG_OF_PERICENTER,MEAN_ANOMALY,EPHEMERIS_TYPE,CLASSIFICATION_TYPE,NORAD_CAT_ID,ELEMENT_SET_NO,REV_AT_EPOCH,BSTAR,MEAN_MOTION_DOT,MEAN_MOTION_DDOT
DUBAISAT-1,2009-041B,2026-06-24T22:58:51.953664,14.75134291,.0011359,98.0059,309.1304,51.3880,308.8344,0,U,35682,999,90624,.12292E-3,.779E-5,0
OCEANSAT-2,2009-051A,2026-06-25T04:56:35.399328,13.99662047,.0015875,98.2321,162.2573,211.9146,148.1060,0,U,35931,999,88045,-.12071E-3,-.214E-5,0
WORLDVIEW-2 (WV-2),2009-055A,2026-06-25T03:59:18.829824,14.37901503,.0004213,98.4734,249.5057,182.6248,177.4917,0,U,35946,999,87679,.43736E-4,.88E-6,0
SMOS,2009-059A,2026-06-25T02:41:18.373344,14.39776570,.0001315,98.4427,3.3308,88.3115,271.8224,0,U,36036,999,87459,.94178E-4,.252E-5,0
YAOGAN-7,2009-069A,2026-06-25T03:28:47.908416,14.78017199,.0025032,98.0065,61.9626,16.8965,343.3073,0,U,36110,999,89080,.71857E-4,.468E-5,0
TANDEM-X,2010-030A,2026-06-23T10:46:51.702528,15.19147870,.00018039,97.4453,182.0670,99.4957,260.6481,0,U,36605,999,88759,.13841893E-4,.224E-5,0
CARTOSAT-2B,2010-035A,2026-06-25T04:32:41.536896,14.78670987,.0011891,97.9953,226.6884,158.1108,202.0613,0,U,36795,999,86103,.11125E-3,.764E-5,0
YAOGAN-10,2010-038A,2026-06-25T05:35:40.943328,14.85370082,.0001708,97.8978,199.5733,87.1356,335.2846,0,U,36834,999,85840,.1923E-3,.1601E-4,0
COSMO-SKYMED 4,2010-060A,2026-06-25T03:21:31.616064,14.82159815,.0001439,97.8893,359.6244,86.2404,273.8974,0,U,37216,999,84574,.97707E-4,.726E-5,0
RESOURCESAT-2,2011-015A,2026-06-25T04:23:34.599840,14.21601556,.0010448,98.7641,243.5696,230.1309,129.8950,0,U,37387,999,78731,.54065E-4,.74E-6,0
HAIYANG-2A,2011-043A,2026-06-25T04:36:54.301824,13.74169709,.000519,99.3397,178.6900,75.7177,284.4548,0,U,37781,999,74775,.62191E-4,.15E-6,0
RASAT,2011-044D,2026-06-25T05:13:56.802720,14.68171728,.0020804,98.0574,267.4924,163.2405,250.4204,0,U,37791,999,79436,.33381E-4,.144E-5,0
SRMSAT,2011-058D,2026-06-25T05:27:08.898048,14.11577108,.0011711,19.9735,10.8048,292.6715,223.4173,0,U,37841,999,75895,.55867E-4,.368E-5,0
PLEIADES 1A,2011-076F,2026-06-25T05:18:30.326112,14.58534906,.0001738,98.1974,251.2163,91.1729,333.2434,0,U,38012,999,77316,.44567E-4,.161E-5,0
ZIYUAN 1-02C (ZY 1-02C),2011-079A,2026-06-25T05:15:55.757376,14.38219797,.0005175,98.4070,243.3602,287.9060,154.9184,0,U,38038,999,76036,.66865E-4,.16E-5,0
ARIRANG-3 (KOMPSAT-3),2012-025B,2026-06-25T04:13:20.731296,14.62212453,.0006821,98.1174,133.4981,89.4983,270.7000,0,U,38338,999,75251,.86282E-4,.388E-5,0
EXACTVIEW-1 (ADS-1B),2012-039C,2026-06-24T04:36:42.526368,14.24986367,.0011499,98.9784,292.7408,147.1161,213.0735,0,U,38709,999,72370,.57389546E-4,.88E-6,0
SPOT 6,2012-047A,2026-06-25T03:44:03.434784,14.58525965,.0001361,98.2117,243.3717,74.5365,285.5984,0,U,38755,999,73421,-.11766E-4,-.1E-5,0
PLEIADES 1B,2012-068A,2026-06-25T04:11:16.546848,14.58564446,.0001689,98.1946,251.1163,87.5129,272.6264,0,U,39019,999,72201,.46947E-4,.173E-5,0
GOKTURK 2,2012-073A,2026-06-25T03:36:45.408384,14.75548822,.0001309,97.6823,13.1827,55.3986,304.7348,0,U,39030,999,72568,.40901E-4,.232E-5,0
LANDSAT 8,2013-008A,2026-06-25T04:42:56.748960,14.57099375,.0001359,98.2299,246.2366,93.3105,266.8249,0,U,39084,999,69906,.73931E-4,.288E-5,0
SARAL,2013-009A,2026-06-25T03:23:25.522368,14.32857754,.0000653,98.5558,2.6077,243.7776,116.3341,0,U,39086,999,69674,.50979E-4,.95E-6,0
GAOFEN-1,2013-018A,2026-06-25T04:40:52.576608,14.76543786,.0015803,97.9093,248.1005,238.3581,121.6088,0,U,39150,999,70942,.52212E-4,.314E-5,0
VNREDSAT 1,2013-021B,2026-06-25T03:34:53.606784,14.64863757,.0001722,97.9080,229.2603,85.7818,274.3582,0,U,39160,999,70145,.90107E-4,.436E-5,0
ARIRANG-5 (KOMPSAT-5),2013-042A,2026-06-25T03:31:57.540000,15.04504780,.0005147,97.6194,2.7354,103.4098,256.7702,0,U,39227,999,70505,.58565E-4,.759E-5,0
SKYSAT-A,2013-066C,2026-06-25T03:03:38.248128,15.13014167,.0019688,97.3814,225.2717,287.9556,71.9529,0,U,39418,999,68968,.16675E-3,.2893E-4,0
DUBAISAT-2,2013-066D,2026-06-25T05:17:32.782848,15.10234923,.0011565,97.4567,166.1539,16.3069,343.8530,0,U,39419,999,68760,.17014E-3,.2723E-4,0
GPM-CORE,2014-009C,2026-06-25T04:09:09.112896,15.44728447,.0011502,64.9719,281.3783,254.8382,105.1487,0,U,39574,999,69904,.2726E-3,.12603E-3,0
SENTINEL-1A,2014-016A,2026-06-25T04:25:52.093344,14.59199317,.000139,98.1783,183.6006,82.5532,277.5825,0,U,39634,999,65118,-.73258E-4,-.391E-5,0
KAZEOSAT 1,2014-024A,2026-06-25T05:01:03.793152,14.42082248,.0001241,98.3204,248.4570,76.4417,283.6911,0,U,39731,999,63971,.58728E-5,-.23E-6,0
ALOS-2,2014-029A,2026-06-24T05:46:29.383104,14.79474948,.00016372,97.9218,272.3032,93.0107,267.1292,0,U,39766,999,65262,.18191465E-3,.1307E-4,0
